{
  "type": "FeatureCollection",
  "features": [
    {
      "type": "Feature",
      "properties": {
        "norad_id": 24946,
        "name": "IRIDIUM 33",
        "group": "iridium-33-debris",
        "lat": 37.343867703915244,
        "lon": 75.18065588809085,
        "alt_km": 776.3841531860016,
        "timestamp": "2025-12-02T17:49:12.413897+00:00",
        "meta_object_name": "IRIDIUM 33",
        "meta_object_id": "1997-051C",
        "meta_epoch": "2025-12-02T12:37:32.111040",
        "meta_mean_motion": 14.35025072,
        "meta_eccentricity": 0.0006052,
        "meta_inclination": 86.3871,
        "meta_ra_of_asc_node": 72.5083,
        "meta_arg_of_pericenter": 240.0734,
        "meta_mean_anomaly": 119.9861,
        "meta_ephemeris_type": 0,
        "meta_classification_type": "U",
        "meta_norad_cat_id": 24946,
        "meta_element_set_no": 999,
        "meta_rev_at_epoch": 47688,
        "meta_bstar": 0.00017445,
        "meta_mean_motion_dot": 5.16e-06,
        "meta_mean_motion_ddot": 0,
        "tle_line1": "1 24946U 97051C   25336.52606610  .00000516  00000+0  17445-3 0  9997",
        "tle_line2": "2 24946  86.3871  72.5083 0006052 240.0734 119.9861 14.35025072476885"
      },
      "geometry": {
        "type": "Point",
        "coordinates": [
          75.18065588809085,
          37.343867703915244
        ]
      }
    },
    {
      "type": "Feature",
      "properties": {
        "norad_id": 33773,
        "name": "IRIDIUM 33 DEB",
        "group": "iridium-33-debris",
        "lat": 59.16289965566951,
        "lon": 70.87599376352436,
        "alt_km": 746.0247547339522,
        "timestamp": "2025-12-02T17:49:12.413941+00:00",
        "meta_object_name": "IRIDIUM 33 DEB",
        "meta_object_id": "1997-051L",
        "meta_epoch": "2025-12-02T07:33:41.360256",
        "meta_mean_motion": 14.43218215,
        "meta_eccentricity": 0.0011374,
        "meta_inclination": 86.4014,
        "meta_ra_of_asc_node": 65.0061,
        "meta_arg_of_pericenter": 178.6597,
        "meta_mean_anomaly": 181.4636,
        "meta_ephemeris_type": 0,
        "meta_classification_type": "U",
        "meta_norad_cat_id": 33773,
        "meta_element_set_no": 999,
        "meta_rev_at_epoch": 88197,
        "meta_bstar": 0.00046684,
        "meta_mean_motion_dot": 1.59e-05,
        "meta_mean_motion_ddot": 0,
        "tle_line1": "1 33773U 97051L   25336.31506204  .00001590  00000+0  46684-3 0  9990",
        "tle_line2": "2 33773  86.4014  65.0061 0011374 178.6597 181.4636 14.43218215881978"
      },
      "geometry": {
        "type": "Point",
        "coordinates": [
          70.87599376352436,
          59.16289965566951
        ]
      }
    },
    {
      "type": "Feature",
      "properties": {
        "norad_id": 33775,
        "name": "IRIDIUM 33 DEB",
        "group": "iridium-33-debris",
        "lat": -27.39112134212116,
        "lon": -124.29134201327835,
        "alt_km": 750.8759618155636,
        "timestamp": "2025-12-02T17:49:12.413958+00:00",
        "meta_object_name": "IRIDIUM 33 DEB",
        "meta_object_id": "1997-051N",
        "meta_epoch": "2025-12-02T11:56:22.640064",
        "meta_mean_motion": 14.41430982,
        "meta_eccentricity": 0.0013115,
        "meta_inclination": 86.3644,
        "meta_ra_of_asc_node": 53.9253,
        "meta_arg_of_pericenter": 187.3418,
        "meta_mean_anomaly": 189.304,
        "meta_ephemeris_type": 0,
        "meta_classification_type": "U",
        "meta_norad_cat_id": 33775,
        "meta_element_set_no": 999,
        "meta_rev_at_epoch": 87993,
        "meta_bstar": 0.00047453,
        "meta_mean_motion_dot": 1.559e-05,
        "meta_mean_motion_ddot": 0,
        "tle_line1": "1 33775U 97051N   25336.49748426  .00001559  00000+0  47453-3 0  9995",
        "tle_line2": "2 33775  86.3644  53.9253 0013115 187.3418 189.3040 14.41430982879935"
      },
      "geometry": {
        "type": "Point",
        "coordinates": [
          -124.29134201327835,
          -27.39112134212116
        ]
      }
    },
    {
      "type": "Feature",
      "properties": {
        "norad_id": 33776,
        "name": "IRIDIUM 33 DEB",
        "group": "iridium-33-debris",
        "lat": -13.12863293473949,
        "lon": -94.1857636718045,
        "alt_km": 761.0107144337235,
        "timestamp": "2025-12-02T17:49:12.413971+00:00",
        "meta_object_name": "IRIDIUM 33 DEB",
        "meta_object_id": "1997-051P",
        "meta_epoch": "2025-12-02T08:51:58.782240",
        "meta_mean_motion": 14.38201921,
        "meta_eccentricity": 0.0013268,
        "meta_inclination": 86.4036,
        "meta_ra_of_asc_node": 85.1304,
        "meta_arg_of_pericenter": 226.4078,
        "meta_mean_anomaly": 196.3304,
        "meta_ephemeris_type": 0,
        "meta_classification_type": "U",
        "meta_norad_cat_id": 33776,
        "meta_element_set_no": 999,
        "meta_rev_at_epoch": 87933,
        "meta_bstar": 0.00042987,
        "meta_mean_motion_dot": 1.325e-05,
        "meta_mean_motion_ddot": 0,
        "tle_line1": "1 33776U 97051P   25336.36943035  .00001325  00000+0  42987-3 0  9993",
        "tle_line2": "2 33776  86.4036  85.1304 0013268 226.4078 196.3304 14.38201921879332"
      },
      "geometry": {
        "type": "Point",
        "coordinates": [
          -94.1857636718045,
          -13.12863293473949
        ]
      }
    },
    {
      "type": "Feature",
      "properties": {
        "norad_id": 33777,
        "name": "IRIDIUM 33 DEB",
        "group": "iridium-33-debris",
        "lat": 77.34591152808527,
        "lon": 55.928167734457695,
        "alt_km": 703.4845928853301,
        "timestamp": "2025-12-02T17:49:12.413984+00:00",
        "meta_object_name": "IRIDIUM 33 DEB",
        "meta_object_id": "1997-051Q",
        "meta_epoch": "2025-12-02T05:54:48.970368",
        "meta_mean_motion": 14.55480765,
        "meta_eccentricity": 0.0005194,
        "meta_inclination": 86.3802,
        "meta_ra_of_asc_node": 39.767,
        "meta_arg_of_pericenter": 298.3236,
        "meta_mean_anomaly": 61.7448,
        "meta_ephemeris_type": 0,
        "meta_classification_type": "U",
        "meta_norad_cat_id": 33777,
        "meta_element_set_no": 999,
        "meta_rev_at_epoch": 88381,
        "meta_bstar": 0.0011991,
        "meta_mean_motion_dot": 5.237e-05,
        "meta_mean_motion_ddot": 0,
        "tle_line1": "1 33777U 97051Q   25336.24640012  .00005237  00000+0  11991-2 0  9996",
        "tle_line2": "2 33777  86.3802  39.7670 0005194 298.3236  61.7448 14.55480765883813"
      },
      "geometry": {
        "type": "Point",
        "coordinates": [
          55.928167734457695,
          77.34591152808527
        ]
      }
    },
    {
      "type": "Feature",
      "properties": {
        "norad_id": 33850,
        "name": "IRIDIUM 33 DEB",
        "group": "iridium-33-debris",
        "lat": 16.119244180056537,
        "lon": -146.58141941798198,
        "alt_km": 745.3325468150088,
        "timestamp": "2025-12-02T17:49:12.413996+00:00",
        "meta_object_name": "IRIDIUM 33 DEB",
        "meta_object_id": "1997-051T",
        "meta_epoch": "2025-12-02T10:27:07.898112",
        "meta_mean_motion": 14.42109256,
        "meta_eccentricity": 0.001112,
        "meta_inclination": 86.3425,
        "meta_ra_of_asc_node": 34.6097,
        "meta_arg_of_pericenter": 193.5905,
        "meta_mean_anomaly": 177.4172,
        "meta_ephemeris_type": 0,
        "meta_classification_type": "U",
        "meta_norad_cat_id": 33850,
        "meta_element_set_no": 999,
        "meta_rev_at_epoch": 88004,
        "meta_bstar": 0.00058424,
        "meta_mean_motion_dot": 1.941e-05,
        "meta_mean_motion_ddot": 0,
        "tle_line1": "1 33850U 97051T   25336.43550808  .00001941  00000+0  58424-3 0  9993",
        "tle_line2": "2 33850  86.3425  34.6097 0011120 193.5905 177.4172 14.42109256880048"
      },
      "geometry": {
        "type": "Point",
        "coordinates": [
          -146.58141941798198,
          16.119244180056537
        ]
      }
    },
    {
      "type": "Feature",
      "properties": {
        "norad_id": 33853,
        "name": "IRIDIUM 33 DEB",
        "group": "iridium-33-debris",
        "lat": -62.29872611557571,
        "lon": -13.461304954778493,
        "alt_km": 774.5452522701999,
        "timestamp": "2025-12-02T17:49:12.414009+00:00",
        "meta_object_name": "IRIDIUM 33 DEB",
        "meta_object_id": "1997-051W",
        "meta_epoch": "2025-12-02T11:59:57.630912",
        "meta_mean_motion": 13.98950763,
        "meta_eccentricity": 0.0206842,
        "meta_inclination": 86.0006,
        "meta_ra_of_asc_node": 354.3022,
        "meta_arg_of_pericenter": 267.47,
        "meta_mean_anomaly": 248.1232,
        "meta_ephemeris_type": 0,
        "meta_classification_type": "U",
        "meta_norad_cat_id": 33853,
        "meta_element_set_no": 999,
        "meta_rev_at_epoch": 85202,
        "meta_bstar": 0.0027198,
        "meta_mean_motion_dot": 4.731e-05,
        "meta_mean_motion_ddot": 0,
        "tle_line1": "1 33853U 97051W   25336.49997258  .00004731  00000+0  27198-2 0  9999",
        "tle_line2": "2 33853  86.0006 354.3022 0206842 267.4700 248.1232 13.98950763852021"
      },
      "geometry": {
        "type": "Point",
        "coordinates": [
          -13.461304954778493,
          -62.29872611557571
        ]
      }
    }
  ]
}